NORAD_CAT_ID,OBJECT_NAME,OBJECT_TYPE,EPOCH,MEAN_MOTION,ECCENTRICITY,INCLINATION,RA_OF_ASC_NODE,ARG_OF_PERICENTER,MEAN_ANOMALY,BSTAR,MEAN_MOTION_DOT,MEAN_MOTION_DDOT,TLE_LINE0,TLE_LINE1,TLE_LINE2,SEMIMAJOR_AXIS,PERIOD,APOGEE,PERIGEE,DECAYED
52849.0,STARLINK-4197,PAYLOAD,2024-04-17 13:23:28,15.08825431,0.0001458,53.2163,246.7333,72.6989,287.4163,-3.5413e-05,-8.51e-06,0.0,0 STARLINK-4197,1 52849U 22062V   24108.55796377 -.00000851  00000-0 -35413-4 0  9990,2 52849  53.2163 246.7333 0001458  72.6989 287.4163 15.08825431102075,6917.925,95.438,540.799,538.781,0.0
52849.0,STARLINK-4197,PAYLOAD,2024-04-17 14:58:51,15.08826459,0.0001681,53.2155,246.4362,58.9802,301.1355,1.0032e-05,-1.28e-06,0.0,0 STARLINK-4197,1 52849U 22062V   24108.62420512 -.00000128  00000-0  10032-4 0  9999,2 52849  53.2155 246.4362 0001681  58.9802 301.1355 15.08826459101598,6917.922,95.438,540.95,538.624,0.0
52849.0,STARLINK-4197,PAYLOAD,2024-04-17 16:34:13,15.08841565,0.0001244,53.2161,246.1348,79.262,280.8512,0.00031204,4.682e-05,0.0,0 STARLINK-4197,1 52849U 22062V   24108.69043966  .00004682  00000-0  31204-3 0  9991,2 52849  53.2161 246.1348 0001244  79.2620 280.8512 15.08841565102094,6917.876,95.437,540.601,538.88,0.0
52849.0,STARLINK-4197,PAYLOAD,2024-04-18 13:14:15,15.0884146,0.0001691,53.2176,242.2743,75.4754,284.6426,0.00020791,3.023e-05,0.0,0 STARLINK-4197,1 52849U 22062V   24109.55156382  .00003023  00000-0  20791-3 0  9991,2 52849  53.2176 242.2743 0001691  75.4754 284.6426 15.08841460102223,6917.876,95.437,540.911,538.571,0.0
52849.0,STARLINK-4197,PAYLOAD,2024-04-18 14:49:38,15.08845123,0.0001815,53.2169,241.9766,70.6046,289.5142,0.00021896,3.199e-05,0.0,0 STARLINK-4197,1 52849U 22062V   24109.61780259  .00003199  00000-0  21896-3 0  9995,2 52849  53.2169 241.9766 0001815  70.6046 289.5142 15.08845123101740,6917.865,95.437,540.985,538.474,0.0
52849.0,STARLINK-4197,PAYLOAD,2024-04-18 16:25:00,15.08855647,0.0001429,53.2157,241.6758,77.9942,282.1211,0.0003859,5.862e-05,0.0,0 STARLINK-4197,1 52849U 22062V   24109.68403506  .00005862  00000-0  38590-3 0  9997,2 52849  53.2157 241.6758 0001429  77.9942 282.1211 15.08855647101750,6917.833,95.437,540.686,538.709,0.0
52849.0,STARLINK-4197,PAYLOAD,2024-04-19 13:05:02,15.08840045,0.0001658,53.217,237.8081,96.9226,263.1954,3.5535e-05,2.78e-06,0.0,0 STARLINK-4197,1 52849U 22062V   24110.54516370  .00000278  00000-0  35535-4 0  9991,2 52849  53.2170 237.8081 0001658  96.9226 263.1954 15.08840045102379,6917.88,95.438,540.892,538.598,0.0
52849.0,STARLINK-4197,PAYLOAD,2024-04-19 14:40:25,15.08842399,0.0001847,53.2168,237.5112,86.5056,273.6148,0.00010455,1.376e-05,0.0,0 STARLINK-4197,1 52849U 22062V   24110.61140412  .00001376  00000-0  10455-3 0  9992,2 52849  53.2168 237.5112 0001847  86.5056 273.6148 15.08842399101895,6917.873,95.437,541.016,538.46,0.0
52849.0,STARLINK-4197,PAYLOAD,2024-04-19 16:15:48,15.08855912,0.0001591,53.217,237.2112,77.6216,282.4954,0.00040278,6.131e-05,0.0,0 STARLINK-4197,1 52849U 22062V   24110.67764069  .00006131  00000-0  40278-3 0  9998,2 52849  53.2170 237.2112 0001591  77.6216 282.4954 15.08855912102394,6917.832,95.437,540.797,538.596,0.0
52849.0,STARLINK-4197,PAYLOAD,2024-04-20 12:55:49,15.08845254,0.000193,53.2181,233.3494,70.8903,289.2298,8.8002e-05,1.113e-05,0.0,0 STARLINK-4197,1 52849U 22062V   24111.53876232  .00001113  00000-0  88002-4 0  9993,2 52849  53.2181 233.3494 0001930  70.8903 289.2298 15.08845254102520,6917.864,95.437,541.064,538.394,0.0
52849.0,STARLINK-4197,PAYLOAD,2024-04-20 14:31:12,15.08816868,0.0001534,53.2177,233.0514,110.6928,249.4228,-0.00055184,-9.054e-05,0.0,0 STARLINK-4197,1 52849U 22062V   24111.60500532 -.00009054  00000-0 -55184-3 0  9996,2 52849  53.2177 233.0514 0001534 110.6928 249.4228 15.08816868102042,6917.951,95.439,540.877,538.755,0.0
52849.0,STARLINK-4197,PAYLOAD,2024-04-20 17:41:59,15.088119,0.000146,53.2178,232.4572,97.0312,263.0846,-0.00056288,-9.228e-05,0.0,0 STARLINK-4197,1 52849U 22062V   24111.73749019 -.00009228  00000-0 -56288-3 0  9994,2 52849  53.2178 232.4572 0001460  97.0312 263.0846 15.08811900102559,6917.966,95.439,540.841,538.821,0.0
52849.0,STARLINK-4197,PAYLOAD,2024-04-21 12:46:36,15.08856019,0.0002179,53.2183,228.8882,110.8343,249.2883,0.00038965,5.921e-05,0.0,0 STARLINK-4197,1 52849U 22062V   24112.53236546  .00005921  00000-0  38965-3 0  9995,2 52849  53.2183 228.8882 0002179 110.8343 249.2883 15.08856019102674,6917.831,95.437,541.204,538.189,0.0
52849.0,STARLINK-4197,PAYLOAD,2024-04-21 17:32:45,15.08860799,0.0001858,53.2167,227.9926,113.5067,246.612,0.00071434,0.00011105,0.0,0 STARLINK-4197,1 52849U 22062V   24112.73108477  .00011105  00000-0  71434-3 0  9997,2 52849  53.2167 227.9926 0001858 113.5067 246.6120 15.08860799102216,6917.817,95.436,540.967,538.396,0.0
52849.0,STARLINK-4197,PAYLOAD,2024-04-22 11:02:00,15.08836562,0.0001419,53.2173,224.7282,125.1322,234.9803,0.00041743,6.361e-05,0.0,0 STARLINK-4197,1 52849U 22062V   24113.45973241  .00006361  00000-0  41743-3 0  9994,2 52849  53.2173 224.7282 0001419 125.1322 234.9803 15.08836562102814,6917.891,95.438,540.738,538.774,0.0
52849.0,STARLINK-4197,PAYLOAD,2024-04-22 17:23:32,15.08850131,0.0002391,53.2177,223.5279,136.647,223.471,0.00052232,8.037e-05,0.0,0 STARLINK-4197,1 52849U 22062V   24113.72468548  .00008037  00000-0  52232-3 0  9990,2 52849  53.2177 223.5279 0002391 136.6470 223.4710 15.08850131102854,6917.849,95.437,541.368,538.06,0.0
52849.0,STARLINK-4197,PAYLOAD,2024-04-23 12:28:10,15.08847902,0.0001709,53.2173,219.963,106.1638,253.9542,7.766e-05,9.48e-06,0.0,0 STARLINK-4197,1 52849U 22062V   24114.51956111  .00000948  00000-0  77660-4 0  9992,2 52849  53.2173 219.9630 0001709 106.1638 253.9542 15.08847902102976,6917.856,95.437,540.903,538.539,0.0
52849.0,STARLINK-4197,PAYLOAD,2024-04-24 12:18:58,15.08830054,0.0001701,53.2165,215.5013,115.5748,244.542,-4.6902e-05,-1.034e-05,0.0,0 STARLINK-4197,1 52849U 22062V   24115.51317245 -.00001034  00000-0 -46902-4 0  9996,2 52849  53.2165 215.5013 0001701 115.5748 244.5420 15.08830054103121,6917.911,95.438,540.953,538.599,0.0
52849.0,STARLINK-4197,PAYLOAD,2024-04-25 12:09:45,15.08843323,0.0001751,53.2171,211.0499,114.8924,245.225,0.00036341,5.501e-05,0.0,0 STARLINK-4197,1 52849U 22062V   24116.50677632  .00005501  00000-0  36341-3 0  9991,2 52849  53.2171 211.0499 0001751 114.8924 245.2250 15.08843323103278,6917.87,95.437,540.947,538.524,0.0
52849.0,STARLINK-4197,PAYLOAD,2024-04-25 13:45:08,15.08849538,0.000139,53.2161,210.7508,76.5822,283.5325,0.00061763,9.558e-05,0.0,0 STARLINK-4197,1 52849U 22062V   24116.57301702  .00009558  00000-0  61763-3 0  9992,2 52849  53.2161 210.7508 0001390  76.5822 283.5325 15.08849538102792,6917.851,95.437,540.678,538.755,0.0
52849.0,STARLINK-4197,PAYLOAD,2024-04-26 13:35:55,15.08861782,0.0001476,53.2151,206.2924,100.1209,259.995,0.00066384,0.00010299,0.0,0 STARLINK-4197,1 52849U 22062V   24117.56661034  .00010299  00000-0  66384-3 0  9997,2 52849  53.2151 206.2924 0001476 100.1209 259.9950 15.08861782102944,6917.814,95.436,540.7,538.658,0.0
52849.0,STARLINK-4197,PAYLOAD,2024-04-26 15:11:18,15.08872334,0.0001512,53.2149,205.9929,102.885,257.2311,0.0011937,0.00018778,0.0,0 STARLINK-4197,1 52849U 22062V   24117.63284828  .00018778  00000-0  11937-2 0  9990,2 52849  53.2149 205.9929 0001512 102.8850 257.2311 15.08872334103447,6917.782,95.436,540.693,538.601,0.0
52849.0,STARLINK-4197,PAYLOAD,2024-04-27 11:51:18,15.0885719,0.0001309,53.2148,202.1263,84.3783,275.7359,0.00068732,0.00010673,0.0,0 STARLINK-4197,1 52849U 22062V   24118.49396543  .00010673  00000-0  68732-3 0  9995,2 52849  53.2148 202.1263 0001309  84.3783 275.7359 15.08857190103573,6917.828,95.436,540.598,538.787,0.0
52849.0,STARLINK-4197,PAYLOAD,2024-04-27 15:02:04,15.08866795,0.0001491,53.215,201.5285,92.0702,268.046,0.00079336,0.0001237,0.0,0 STARLINK-4197,1 52849U 22062V   24118.62644158  .00012370  00000-0  79336-3 0  9996,2 52849  53.2150 201.5285 0001491  92.0702 268.0460 15.08866795103100,6917.798,95.436,540.695,538.632,0.0
52849.0,STARLINK-4197,PAYLOAD,2024-04-28 05:20:33,15.08821199,6.82e-05,53.2151,198.855,54.7082,305.3974,-0.00016128,-2.852e-05,0.0,0 STARLINK-4197,1 52849U 22062V   24119.22261472 -.00002852  00000-0 -16128-3 0  9993,2 52849  53.2151 198.8550 0000682  54.7082 305.3974 15.08821199103688,6917.938,95.439,540.275,539.331,0.0
52849.0,STARLINK-4197,PAYLOAD,2024-04-28 11:42:06,15.08823353,0.0001237,53.2148,197.6655,91.0103,269.103,-0.00014363,-2.572e-05,0.0,0 STARLINK-4197,1 52849U 22062V   24119.48757730 -.00002572  00000-0 -14363-3 0  9996,2 52849  53.2148 197.6655 0001237  91.0103 269.1030 15.08823353103237,6917.931,95.439,540.652,538.941,0.0
52849.0,STARLINK-4197,PAYLOAD,2024-04-29 05:11:21,15.08834776,0.0001192,53.215,194.3949,84.7348,275.378,0.00073309,0.00011397,0.0,0 STARLINK-4197,1 52849U 22062V   24120.21622449  .00011397  00000-0  73309-3 0  9995,2 52849  53.2150 194.3949 0001192  84.7348 275.3780 15.08834776103838,6917.896,95.438,540.586,538.937,0.0
52849.0,STARLINK-4197,PAYLOAD,2024-04-29 11:32:54,15.08851777,0.0001263,53.2148,193.2061,86.3959,273.7178,0.0010449,0.00016386,0.0,0 STARLINK-4197,1 52849U 22062V   24120.48118159  .00016386  00000-0  10449-2 0  9990,2 52849  53.2148 193.2061 0001263  86.3959 273.7178 15.08851777103386,6917.844,95.437,540.583,538.836,0.0
52849.0,STARLINK-4197,PAYLOAD,2024-04-30 05:02:08,15.08852092,0.0001402,53.215,189.9361,88.0128,272.1025,0.00036808,5.577e-05,0.0,0 STARLINK-4197,1 52849U 22062V   24121.20981821  .00005577  00000-0  36808-3 0  9993,2 52849  53.2150 189.9361 0001402  88.0128 272.1025 15.08852092103987,6917.843,95.437,540.678,538.739,0.0
52849.0,STARLINK-4197,PAYLOAD,2024-04-30 11:23:40,15.08852779,0.0001376,53.2154,188.7481,85.3734,274.7415,0.00033832,5.102e-05,0.0,0 STARLINK-4197,1 52849U 22062V   24121.47477664  .00005102  00000-0  33832-3 0  9995,2 52849  53.2154 188.7481 0001376  85.3734 274.7415 15.08852779103538,6917.841,95.437,540.658,538.754,0.0
